OBJECT_NAME,OBJECT_ID,EPOCH,MEAN_MOTION,ECCENTRICITY,INCLINATION,RA_OF_ASC_NODE,ARG_OF_PERICENTER,MEAN_ANOMALY,EPHEMERIS_TYPE,CLASSIFICATION_TYPE,NORAD_CAT_ID,ELEMENT_SET_NO,REV_AT_EPOCH,BSTAR,MEAN_MOTION_DOT,MEAN_MOTION_DDOT
STARLINK-37998,2026-145C,2026-07-07T02:00:03.000384,15.75203983,.0001422,97.2854,34.5305,91.4351,149.0950,0,U,69679,999,312,-.5989E-4,-.9059E-4,0
STARLINK-37994,2026-145D,2026-07-07T01:00:59.724288,15.75302106,.000132,97.2848,34.4834,64.6593,295.4809,0,U,69680,999,189,.18313E-2,.283666E-2,0
STARLINK-37992,2026-145E,2026-07-07T01:00:29.556864,15.75236302,.0001581,97.2850,34.4840,65.8696,294.2735,0,U,69681,999,189,.11059E-2,.168456E-2,0
STARLINK-37997,2026-145F,2026-07-07T00:59:28.350240,15.75299578,.0001495,97.2845,34.4848,85.2953,274.8483,0,U,69682,999,189,.1834E-2,.284071E-2,0
STARLINK-37990,2026-145G,2026-07-07T00:59:58.807104,15.75302176,.000133,97.2846,34.4841,75.1539,284.9874,0,U,69683,999,189,.18364E-2,.284488E-2,0
STARLINK-37951,2026-145H,2026-07-07T00:58:26.708160,15.75288699,.0000725,97.2846,34.4856,189.0633,171.0620,0,U,69684,999,189,.15452E-2,.237896E-2,0
STARLINK-37957,2026-145J,2026-07-07T00:56:55.824000,15.75300922,.0001187,97.2846,34.4870,82.3083,277.8317,0,U,69685,999,189,.18412E-2,.285238E-2,0
STARLINK-37968,2026-145K,2026-07-07T00:48:17.453376,15.75282451,.0001156,97.2848,34.4963,83.7900,276.3497,0,U,69686,999,189,.15206E-2,.233941E-2,0
STARLINK-37977,2026-145L,2026-07-07T00:47:16.372032,15.75283843,.0000854,97.2852,34.4970,107.6511,252.4848,0,U,69687,999,189,.15429E-2,.237485E-2,0
STARLINK-37908,2026-145M,2026-07-07T02:00:03.000384,15.75285452,.0000807,97.2857,34.5562,111.7501,186.7712,0,U,69688,999,312,-.12636E-2,-.185326E-2,0
STARLINK-37979,2026-145N,2026-07-07T02:00:03.000384,15.75177606,.0001468,97.2863,34.5551,95.0984,205.4320,0,U,69689,999,312,.19739E-3,.29398E-3,0
STARLINK-37940,2026-145P,2026-07-07T00:42:11.757600,15.75279977,.0001993,97.2850,34.5021,101.0345,259.1144,0,U,69690,999,189,.15578E-2,.2398E-2,0
STARLINK-37961,2026-145Q,2026-07-07T02:00:03.000384,15.75197183,.0001254,97.2853,34.5665,99.9768,224.5424,0,U,69691,999,312,-.47434E-5,-.837E-5,0
STARLINK-37787,2026-145R,2026-07-07T02:00:03.000384,15.75223832,.000129,97.2851,34.5716,71.9733,264.5412,0,U,69692,999,312,-.29684E-3,-.44241E-3,0
STARLINK-37962,2026-145S,2026-07-07T02:00:03.000384,15.75213533,.0001514,97.2852,34.5765,98.6492,247.8689,0,U,69693,999,312,-.17896E-3,-.26767E-3,0
STARLINK-37953,2026-145T,2026-07-07T02:00:03.000384,15.75231249,.0001397,97.2853,34.5689,104.6190,225.9099,0,U,69694,999,312,-.68079E-3,-.100667E-2,0
STARLINK-37926,2026-145U,2026-07-07T02:00:03.000384,15.75213450,.0001539,97.2852,34.5714,123.9579,210.5501,0,U,69695,999,312,-.45859E-4,-.6971E-4,0
STARLINK-37959,2026-145V,2026-07-07T02:00:03.000384,15.75271421,.0001339,97.2854,34.5728,114.8835,225.6260,0,U,69696,999,312,-.10841E-2,-.159412E-2,0
STARLINK-37976,2026-145W,2026-07-07T02:00:03.000384,15.75213517,.0001216,97.2855,34.5804,90.4476,266.0648,0,U,69697,999,312,-.13539E-3,-.20296E-3,0
STARLINK-37912,2026-145X,2026-07-07T02:00:03.000384,15.75167619,.0001176,97.2855,34.5835,76.7312,285.8578,0,U,69698,999,312,-.53364E-3,-.78917E-3,0
STARLINK-37974,2026-145Y,2026-07-07T02:00:03.000384,15.75222565,.0001389,97.2855,34.5853,90.2844,276.2261,0,U,69699,999,312,-.20158E-3,-.30133E-3,0
STARLINK-37955,2026-145Z,2026-07-07T02:00:03.000384,15.75219966,.0001015,97.2859,34.5916,97.2635,283.2477,0,U,69700,999,312,-.27053E-3,-.40341E-3,0
STRIX-8,2026-146A,2026-07-07T02:51:39.558240,15.04388012,.0008507,41.9896,57.8290,330.1502,29.8838,0,U,69701,999,156,.2624E-3,.3538E-4,0
ELECTRON R/B,2026-146B,2026-07-06T23:18:38.825280,15.68721632,.0191201,42.0771,53.0817,322.7502,36.0216,0,U,69702,999,161,.86599E-3,.304972E-2,.34275E-4
ELECTRON KICK STAGE R/B,2026-146C,2026-07-07T02:46:30.216864,15.04901226,.0010263,41.9880,57.7989,331.1247,28.9011,0,U,69703,999,156,.23168E-3,.3147E-4,0
STARLINK-38055,2026-147A,2026-07-07T02:00:03.000384,15.80844706,.0001324,97.2835,223.9997,87.0029,8.0808,0,U,69704,999,244,-.20197E-3,-.38709E-3,0
STARLINK-37898,2026-147B,2026-07-07T02:00:03.000384,15.80852212,.0001056,97.2833,224.0016,90.9202,8.8486,0,U,69705,999,244,-.33842E-3,-.64593E-3,0
STARLINK-37970,2026-147C,2026-07-07T02:00:03.000384,15.80854827,.0001568,97.2837,224.0041,93.1392,10.8975,0,U,69706,999,244,-.20584E-3,-.39463E-3,0
STARLINK-37975,2026-147D,2026-07-07T02:00:03.000384,15.80838552,.0000932,97.2836,224.0054,82.8073,25.5175,0,U,69707,999,244,-.24788E-3,-.47411E-3,0
STARLINK-37972,2026-147E,2026-07-07T02:00:03.000384,15.80863378,.0000753,97.2837,224.0086,64.4792,48.1176,0,U,69708,999,244,-.23683E-3,-.45367E-3,0
