STARLINK-37998          
1 69679U 26145C   26188.08336806 -.00009059  00000+0 -59890-4 0  9993
2 69679  97.2854  34.5305 0001422  91.4351 149.0950 15.75203983  3123
STARLINK-37994          
1 69680U 26145D   26188.04235792  .00283666  00000+0  18313-2 0  9992
2 69680  97.2848  34.4834 0001320  64.6593 295.4809 15.75302106  1899
STARLINK-37992          
1 69681U 26145E   26188.04200876  .00168456  00000+0  11059-2 0  9997
2 69681  97.2850  34.4840 0001581  65.8696 294.2735 15.75236302  1895
STARLINK-37997          
1 69682U 26145F   26188.04130035  .00284071  00000+0  18340-2 0  9999
2 69682  97.2845  34.4848 0001495  85.2953 274.8483 15.75299578  1892
STARLINK-37990          
1 69683U 26145G   26188.04165286  .00284488  00000+0  18364-2 0  9994
2 69683  97.2846  34.4841 0001330  75.1539 284.9874 15.75302176  1898
STARLINK-37951          
1 69684U 26145H   26188.04058690  .00237896  00000+0  15452-2 0  9991
2 69684  97.2846  34.4856 0000725 189.0633 171.0620 15.75288699  1890
STARLINK-37957          
1 69685U 26145J   26188.03953500  .00285238  00000+0  18412-2 0  9997
2 69685  97.2846  34.4870 0001187  82.3083 277.8317 15.75300922  1896
STARLINK-37968          
1 69686U 26145K   26188.03353534  .00233941  00000+0  15206-2 0  9991
2 69686  97.2848  34.4963 0001156  83.7900 276.3497 15.75282451  1890
STARLINK-37977          
1 69687U 26145L   26188.03282838  .00237485  00000+0  15429-2 0  9994
2 69687  97.2852  34.4970 0000854 107.6511 252.4848 15.75283843  1893
STARLINK-37908          
1 69688U 26145M   26188.08336806 -.00185326  00000+0 -12636-2 0  9990
2 69688  97.2857  34.5562 0000807 111.7501 186.7712 15.75285452  3125
STARLINK-37979          
1 69689U 26145N   26188.08336806  .00029398  00000+0  19739-3 0  9997
2 69689  97.2863  34.5551 0001468  95.0984 205.4320 15.75177606  3129
STARLINK-37940          
1 69690U 26145P   26188.02930275  .00239800  00000+0  15578-2 0  9990
2 69690  97.2850  34.5021 0001993 101.0345 259.1144 15.75279977  1897
STARLINK-37961          
1 69691U 26145Q   26188.08336806 -.00000837  00000+0 -47434-5 0  9994
2 69691  97.2853  34.5665 0001254  99.9768 224.5424 15.75197183  3122
STARLINK-37787          
1 69692U 26145R   26188.08336806 -.00044241  00000+0 -29684-3 0  9997
2 69692  97.2851  34.5716 0001290  71.9733 264.5412 15.75223832  3122
STARLINK-37962          
1 69693U 26145S   26188.08336806 -.00026767  00000+0 -17896-3 0  9993
2 69693  97.2852  34.5765 0001514  98.6492 247.8689 15.75213533  3122
STARLINK-37953          
1 69694U 26145T   26188.08336806 -.00100667  00000+0 -68079-3 0  9995
2 69694  97.2853  34.5689 0001397 104.6190 225.9099 15.75231249  3127
STARLINK-37926          
1 69695U 26145U   26188.08336806 -.00006971  00000+0 -45859-4 0  9991
2 69695  97.2852  34.5714 0001539 123.9579 210.5501 15.75213450  3121
STARLINK-37959          
1 69696U 26145V   26188.08336806 -.00159412  00000+0 -10841-2 0  9992
2 69696  97.2854  34.5728 0001339 114.8835 225.6260 15.75271421  3122
STARLINK-37976          
1 69697U 26145W   26188.08336806 -.00020296  00000+0 -13539-3 0  9998
2 69697  97.2855  34.5804 0001216  90.4476 266.0648 15.75213517  3124
STARLINK-37912          
1 69698U 26145X   26188.08336806 -.00078917  00000+0 -53364-3 0  9992
2 69698  97.2855  34.5835 0001176  76.7312 285.8578 15.75167619  3122
STARLINK-37974          
1 69699U 26145Y   26188.08336806 -.00030133  00000+0 -20158-3 0  9996
2 69699  97.2855  34.5853 0001389  90.2844 276.2261 15.75222565  3125
STARLINK-37955          
1 69700U 26145Z   26188.08336806 -.00040341  00000+0 -27053-3 0  9992
2 69700  97.2859  34.5916 0001015  97.2635 283.2477 15.75219966  3121
STRIX-8                 
1 69701U 26146A   26188.11920785  .00003538  00000+0  26240-3 0  9995
2 69701  41.9896  57.8290 0008507 330.1502  29.8838 15.04388012  1569
ELECTRON R/B            
1 69702U 26146B   26187.97128270  .00304972  34275-4  86599-3 0  9993
2 69702  42.0771  53.0817 0191201 322.7502  36.0216 15.68721632  1613
ELECTRON KICK STAGE R/B 
1 69703U 26146C   26188.11562751  .00003147  00000+0  23168-3 0  9994
2 69703  41.9880  57.7989 0010263 331.1247  28.9011 15.04901226  1568
STARLINK-38055          
1 69704U 26147A   26188.08336806 -.00038709  00000+0 -20197-3 0  9995
2 69704  97.2835 223.9997 0001324  87.0029   8.0808 15.80844706  2446
STARLINK-37898          
1 69705U 26147B   26188.08336806 -.00064593  00000+0 -33842-3 0  9997
2 69705  97.2833 224.0016 0001056  90.9202   8.8486 15.80852212  2448
STARLINK-37970          
1 69706U 26147C   26188.08336806 -.00039463  00000+0 -20584-3 0  9995
2 69706  97.2837 224.0041 0001568  93.1392  10.8975 15.80854827  2444
STARLINK-37975          
1 69707U 26147D   26188.08336806 -.00047411  00000+0 -24788-3 0  9998
2 69707  97.2836 224.0054 0000932  82.8073  25.5175 15.80838552  2445
STARLINK-37972          
1 69708U 26147E   26188.08336806 -.00045367  00000+0 -23683-3 0  9990
2 69708  97.2837 224.0086 0000753  64.4792  48.1176 15.80863378  2443
